{"type":"FeatureCollection","features":[{"type":"Feature","properties":{"DPTO_CCDGO":"05","DPTO_CNMBR":"Antioquia","NOMBRE_DPT":"Antioquia"},"geometry":{"type":"Polygon","coordinates":[[[-77.1,8.7],[-76.1,8.7],[-75.7,8.0],[-75.6,7.5],[-74.9,6.6],[-75.4,6.0],[-75.2,5.5],[-75.6,5.5],[-76.0,5.7],[-76.5,6.0],[-76.8,6.5],[-77.1,7.0],[-77.1,8.7]]]}},{"type":"Feature","properties":{"DPTO_CCDGO":"08","DPTO_CNMBR":"Atlántico","NOMBRE_DPT":"Atlántico"},"geometry":{"type":"Polygon","coordinates":[[[-75.2,11.1],[-74.7,11.1],[-74.6,10.6],[-74.9,10.5],[-75.2,10.7],[-75.2,11.1]]]}},{"type":"Feature","properties":{"DPTO_CCDGO":"11","DPTO_CNMBR":"Bogotá D.C.","NOMBRE_DPT":"Bogotá D.C."},"geometry":{"type":"Polygon","coordinates":[[[-74.3,4.9],[-73.9,4.9],[-73.9,4.4],[-74.3,4.4],[-74.3,4.9]]]}},{"type":"Feature","properties":{"DPTO_CCDGO":"13","DPTO_CNMBR":"Bolívar","NOMBRE_DPT":"Bolívar"},"geometry":{"type":"Polygon","coordinates":[[[-75.7,10.5],[-74.7,10.5],[-74.4,9.4],[-74.6,8.8],[-75.0,8.7],[-75.4,8.8],[-75.7,9.2],[-75.9,9.8],[-75.7,10.5]]]}},{"type":"Feature","properties":{"DPTO_CCDGO":"15","DPTO_CNMBR":"Boyacá","NOMBRE_DPT":"Boyacá"},"geometry":{"type":"Polygon","coordinates":[[[-74.5,7.0],[-72.9,7.0],[-72.5,6.2],[-72.8,5.4],[-73.5,5.3],[-74.1,5.4],[-74.5,5.8],[-74.5,7.0]]]}},{"type":"Feature","properties":{"DPTO_CCDGO":"17","DPTO_CNMBR":"Caldas","NOMBRE_DPT":"Caldas"},"geometry":{"type":"Polygon","coordinates":[[[-76.2,5.6],[-75.3,5.6],[-75.0,5.1],[-75.4,4.8],[-75.9,5.0],[-76.2,5.3],[-76.2,5.6]]]}},{"type":"Feature","properties":{"DPTO_CCDGO":"18","DPTO_CNMBR":"Caquetá","NOMBRE_DPT":"Caquetá"},"geometry":{"type":"Polygon","coordinates":[[[-76.5,1.8],[-74.7,1.8],[-74.3,0.5],[-74.5,-0.5],[-75.2,-0.5],[-76.1,0.3],[-76.5,1.0],[-76.5,1.8]]]}},{"type":"Feature","properties":{"DPTO_CCDGO":"19","DPTO_CNMBR":"Cauca","NOMBRE_DPT":"Cauca"},"geometry":{"type":"Polygon","coordinates":[[[-77.5,3.2],[-76.3,3.2],[-75.8,2.8],[-75.6,1.8],[-76.2,1.4],[-77.0,1.6],[-77.5,2.2],[-77.5,3.2]]]}},{"type":"Feature","properties":{"DPTO_CCDGO":"20","DPTO_CNMBR":"Cesar","NOMBRE_DPT":"Cesar"},"geometry":{"type":"Polygon","coordinates":[[[-74.4,10.7],[-73.1,10.7],[-72.7,10.0],[-73.0,9.0],[-73.7,8.9],[-74.4,9.2],[-74.4,10.7]]]}},{"type":"Feature","properties":{"DPTO_CCDGO":"23","DPTO_CNMBR":"Córdoba","NOMBRE_DPT":"Córdoba"},"geometry":{"type":"Polygon","coordinates":[[[-76.5,9.5],[-75.4,9.5],[-75.0,9.0],[-74.9,8.4],[-75.5,8.0],[-76.1,8.2],[-76.5,8.8],[-76.5,9.5]]]}},{"type":"Feature","properties":{"DPTO_CCDGO":"25","DPTO_CNMBR":"Cundinamarca","NOMBRE_DPT":"Cundinamarca"},"geometry":{"type":"Polygon","coordinates":[[[-75.0,5.4],[-73.9,5.4],[-73.7,4.8],[-73.9,4.0],[-74.5,4.0],[-74.9,4.5],[-75.0,5.0],[-75.0,5.4]]]}},{"type":"Feature","properties":{"DPTO_CCDGO":"27","DPTO_CNMBR":"Chocó","NOMBRE_DPT":"Chocó"},"geometry":{"type":"Polygon","coordinates":[[[-77.9,8.7],[-76.8,8.7],[-76.3,7.9],[-76.0,7.0],[-76.3,5.5],[-76.8,4.8],[-77.4,4.6],[-77.9,5.5],[-77.9,8.7]]]}},{"type":"Feature","properties":{"DPTO_CCDGO":"41","DPTO_CNMBR":"Huila","NOMBRE_DPT":"Huila"},"geometry":{"type":"Polygon","coordinates":[[[-76.2,3.7],[-74.9,3.7],[-74.6,2.8],[-74.8,1.6],[-75.5,1.5],[-76.0,2.0],[-76.3,2.9],[-76.2,3.7]]]}},{"type":"Feature","properties":{"DPTO_CCDGO":"44","DPTO_CNMBR":"La Guajira","NOMBRE_DPT":"La Guajira"},"geometry":{"type":"Polygon","coordinates":[[[-73.4,12.4],[-72.2,12.4],[-71.6,11.0],[-72.2,10.5],[-73.1,10.8],[-73.5,11.4],[-73.4,12.4]]]}},{"type":"Feature","properties":{"DPTO_CCDGO":"47","DPTO_CNMBR":"Magdalena","NOMBRE_DPT":"Magdalena"},"geometry":{"type":"Polygon","coordinates":[[[-75.0,11.3],[-74.0,11.3],[-73.5,10.5],[-73.7,9.7],[-74.4,9.5],[-74.8,9.7],[-75.0,10.5],[-75.0,11.3]]]}},{"type":"Feature","properties":{"DPTO_CCDGO":"50","DPTO_CNMBR":"Meta","NOMBRE_DPT":"Meta"},"geometry":{"type":"Polygon","coordinates":[[[-75.5,4.8],[-72.5,4.8],[-71.6,3.0],[-72.0,1.5],[-73.5,1.4],[-74.5,2.0],[-75.3,3.5],[-75.5,4.8]]]}},{"type":"Feature","properties":{"DPTO_CCDGO":"52","DPTO_CNMBR":"Nariño","NOMBRE_DPT":"Nariño"},"geometry":{"type":"Polygon","coordinates":[[[-78.2,2.0],[-77.0,2.0],[-76.5,1.4],[-76.2,0.5],[-76.5,-0.1],[-77.5,-0.1],[-78.2,0.6],[-78.2,2.0]]]}},{"type":"Feature","properties":{"DPTO_CCDGO":"54","DPTO_CNMBR":"Norte de Santander","NOMBRE_DPT":"Norte de Santander"},"geometry":{"type":"Polygon","coordinates":[[[-73.5,8.5],[-72.2,8.5],[-72.0,7.5],[-72.5,6.5],[-73.0,6.3],[-73.5,6.8],[-73.5,8.5]]]}},{"type":"Feature","properties":{"DPTO_CCDGO":"63","DPTO_CNMBR":"Quindío","NOMBRE_DPT":"Quindío"},"geometry":{"type":"Polygon","coordinates":[[[-76.0,4.8],[-75.5,4.8],[-75.4,4.3],[-75.8,4.2],[-76.1,4.5],[-76.0,4.8]]]}},{"type":"Feature","properties":{"DPTO_CCDGO":"66","DPTO_CNMBR":"Risaralda","NOMBRE_DPT":"Risaralda"},"geometry":{"type":"Polygon","coordinates":[[[-76.3,5.4],[-75.7,5.4],[-75.5,4.9],[-75.7,4.6],[-76.2,4.8],[-76.3,5.1],[-76.3,5.4]]]}},{"type":"Feature","properties":{"DPTO_CCDGO":"68","DPTO_CNMBR":"Santander","NOMBRE_DPT":"Santander"},"geometry":{"type":"Polygon","coordinates":[[[-74.5,7.5],[-72.8,7.5],[-72.5,6.5],[-72.9,5.7],[-73.6,5.5],[-74.2,5.6],[-74.5,6.3],[-74.5,7.5]]]}},{"type":"Feature","properties":{"DPTO_CCDGO":"70","DPTO_CNMBR":"Sucre","NOMBRE_DPT":"Sucre"},"geometry":{"type":"Polygon","coordinates":[[[-75.9,9.7],[-75.1,9.7],[-74.9,9.1],[-75.2,8.8],[-75.8,8.9],[-76.0,9.3],[-75.9,9.7]]]}},{"type":"Feature","properties":{"DPTO_CCDGO":"73","DPTO_CNMBR":"Tolima","NOMBRE_DPT":"Tolima"},"geometry":{"type":"Polygon","coordinates":[[[-76.2,5.1],[-74.8,5.1],[-74.5,4.4],[-74.5,3.3],[-75.2,3.0],[-75.9,3.3],[-76.3,4.0],[-76.2,5.1]]]}},{"type":"Feature","properties":{"DPTO_CCDGO":"76","DPTO_CNMBR":"Valle del Cauca","NOMBRE_DPT":"Valle del Cauca"},"geometry":{"type":"Polygon","coordinates":[[[-77.3,4.2],[-76.0,4.2],[-75.7,3.6],[-75.8,3.0],[-76.4,2.8],[-77.0,3.1],[-77.3,3.7],[-77.3,4.2]]]}},{"type":"Feature","properties":{"DPTO_CCDGO":"81","DPTO_CNMBR":"Arauca","NOMBRE_DPT":"Arauca"},"geometry":{"type":"Polygon","coordinates":[[[-72.4,7.2],[-70.5,7.2],[-70.0,6.3],[-70.6,5.8],[-71.8,5.8],[-72.5,6.3],[-72.4,7.2]]]}},{"type":"Feature","properties":{"DPTO_CCDGO":"85","DPTO_CNMBR":"Casanare","NOMBRE_DPT":"Casanare"},"geometry":{"type":"Polygon","coordinates":[[[-74.0,6.5],[-71.5,6.5],[-71.0,5.5],[-71.5,4.5],[-72.8,4.3],[-73.8,4.8],[-74.0,5.8],[-74.0,6.5]]]}},{"type":"Feature","properties":{"DPTO_CCDGO":"86","DPTO_CNMBR":"Putumayo","NOMBRE_DPT":"Putumayo"},"geometry":{"type":"Polygon","coordinates":[[[-77.5,1.2],[-75.2,1.2],[-74.9,0.3],[-75.2,-0.4],[-76.5,-0.4],[-77.3,0.2],[-77.5,1.2]]]}},{"type":"Feature","properties":{"DPTO_CCDGO":"88","DPTO_CNMBR":"San Andrés y Providencia","NOMBRE_DPT":"San Andrés y Providencia"},"geometry":{"type":"Polygon","coordinates":[[[-81.9,12.7],[-81.7,12.7],[-81.6,12.5],[-81.7,12.4],[-81.9,12.5],[-81.9,12.7]]]}},{"type":"Feature","properties":{"DPTO_CCDGO":"91","DPTO_CNMBR":"Amazonas","NOMBRE_DPT":"Amazonas"},"geometry":{"type":"Polygon","coordinates":[[[-74.5,0.0],[-70.0,0.0],[-69.5,-1.0],[-70.0,-4.1],[-72.5,-4.1],[-74.5,-2.0],[-74.5,0.0]]]}},{"type":"Feature","properties":{"DPTO_CCDGO":"94","DPTO_CNMBR":"Guainía","NOMBRE_DPT":"Guainía"},"geometry":{"type":"Polygon","coordinates":[[[-71.5,3.8],[-67.8,3.8],[-67.5,2.0],[-68.0,1.2],[-69.5,0.8],[-70.5,1.5],[-71.5,2.5],[-71.5,3.8]]]}},{"type":"Feature","properties":{"DPTO_CCDGO":"95","DPTO_CNMBR":"Guaviare","NOMBRE_DPT":"Guaviare"},"geometry":{"type":"Polygon","coordinates":[[[-74.5,3.2],[-71.5,3.2],[-71.0,2.0],[-71.5,1.2],[-73.0,1.0],[-74.5,1.8],[-74.5,3.2]]]}},{"type":"Feature","properties":{"DPTO_CCDGO":"97","DPTO_CNMBR":"Vaupés","NOMBRE_DPT":"Vaupés"},"geometry":{"type":"Polygon","coordinates":[[[-71.5,1.5],[-69.0,1.5],[-68.0,0.5],[-68.5,-0.5],[-70.0,-0.8],[-71.0,0.2],[-71.5,1.5]]]}},{"type":"Feature","properties":{"DPTO_CCDGO":"99","DPTO_CNMBR":"Vichada","NOMBRE_DPT":"Vichada"},"geometry":{"type":"Polygon","coordinates":[[[-71.5,6.5],[-68.0,6.5],[-67.5,5.5],[-68.0,3.8],[-69.5,3.5],[-70.8,4.0],[-71.5,5.0],[-71.5,6.5]]]}}]}